{
  "links" : {
    "next" : "https://api.nasa.gov/neo/rest/v1/feed?start_date=1995-02-23&end_date=1995-02-23&detailed=true&api_key=t0TVs3DtDT2H8Oy2Zy8m2eVrNsAVKAexjcZXUckd",
    "prev" : "https://api.nasa.gov/neo/rest/v1/feed?start_date=1995-02-21&end_date=1995-02-21&detailed=true&api_key=t0TVs3DtDT2H8Oy2Zy8m2eVrNsAVKAexjcZXUckd",
    "self" : "https://api.nasa.gov/neo/rest/v1/feed?start_date=1995-02-22&end_date=1995-02-22&detailed=true&api_key=t0TVs3DtDT2H8Oy2Zy8m2eVrNsAVKAexjcZXUckd"
  },
  "element_count" : 5,
  "near_earth_objects" : {
    "1995-02-22" : [ {
      "links" : {
        "self" : "https://api.nasa.gov/neo/rest/v1/neo/3646046?api_key=t0TVs3DtDT2H8Oy2Zy8m2eVrNsAVKAexjcZXUckd"
      },
      "neo_reference_id" : "3646046",
      "name" : "(2013 QU1)",
      "nasa_jpl_url" : "http://ssd.jpl.nasa.gov/sbdb.cgi?sstr=3646046",
      "absolute_magnitude_h" : 21.3,
      "estimated_diameter" : {
        "kilometers" : {
          "estimated_diameter_min" : 0.1460679643,
          "estimated_diameter_max" : 0.3266178974
        },
        "meters" : {
          "estimated_diameter_min" : 146.0679642714,
          "estimated_diameter_max" : 326.6178974458
        },
        "miles" : {
          "estimated_diameter_min" : 0.090762397,
          "estimated_diameter_max" : 0.2029508896
        },
        "feet" : {
          "estimated_diameter_min" : 479.2256199,
          "estimated_diameter_max" : 1071.581062656
        }
      },
      "is_potentially_hazardous_asteroid" : true,
      "close_approach_data" : [ {
        "close_approach_date" : "1995-02-22",
        "epoch_date_close_approach" : 793440000000,
        "relative_velocity" : {
          "kilometers_per_second" : "19.223165458",
          "kilometers_per_hour" : "69203.3956488727",
          "miles_per_hour" : "43000.2988130454"
        },
        "miss_distance" : {
          "astronomical" : "0.1020481263",
          "lunar" : "39.696723938",
          "kilometers" : "15266183",
          "miles" : "9485966"
        },
        "orbiting_body" : "Earth"
      } ],
      "orbital_data" : {
        "orbit_id" : "13",
        "orbit_determination_date" : "2017-04-06 08:45:06",
        "orbit_uncertainty" : "4",
        "minimum_orbit_intersection" : ".0140066",
        "jupiter_tisserand_invariant" : "5.149",
        "epoch_osculation" : "2458000.5",
        "eccentricity" : ".2494248827236086",
        "semi_major_axis" : "1.183993437388868",
        "inclination" : "35.2402424959676",
        "ascending_node_longitude" : "149.1565598893367",
        "orbital_period" : "470.5679773704998",
        "perihelion_distance" : ".8886760131226273",
        "perihelion_argument" : "55.21650962102305",
        "aphelion_distance" : "1.479310861655108",
        "perihelion_time" : "2457816.155450825785",
        "mean_anomaly" : "141.0296511750646",
        "mean_motion" : ".7650329332047928",
        "equinox" : "J2000"
      }
    }, {
      "links" : {
        "self" : "https://api.nasa.gov/neo/rest/v1/neo/3780693?api_key=t0TVs3DtDT2H8Oy2Zy8m2eVrNsAVKAexjcZXUckd"
      },
      "neo_reference_id" : "3780693",
      "name" : "(2017 PZ26)",
      "nasa_jpl_url" : "http://ssd.jpl.nasa.gov/sbdb.cgi?sstr=3780693",
      "absolute_magnitude_h" : 26.989,
      "estimated_diameter" : {
        "kilometers" : {
          "estimated_diameter_min" : 0.0106354281,
          "estimated_diameter_max" : 0.0237815402
        },
        "meters" : {
          "estimated_diameter_min" : 10.6354281167,
          "estimated_diameter_max" : 23.7815402388
        },
        "miles" : {
          "estimated_diameter_min" : 0.0066085466,
          "estimated_diameter_max" : 0.0147771594
        },
        "feet" : {
          "estimated_diameter_min" : 34.8931379824,
          "estimated_diameter_max" : 78.023428477
        }
      },
      "is_potentially_hazardous_asteroid" : false,
      "close_approach_data" : [ {
        "close_approach_date" : "1995-02-22",
        "epoch_date_close_approach" : 793440000000,
        "relative_velocity" : {
          "kilometers_per_second" : "7.1641480595",
          "kilometers_per_hour" : "25790.9330143395",
          "miles_per_hour" : "16025.4827943822"
        },
        "miss_distance" : {
          "astronomical" : "0.2115968709",
          "lunar" : "82.3111877441",
          "kilometers" : "31654442",
          "miles" : "19669158"
        },
        "orbiting_body" : "Earth"
      } ],
      "orbital_data" : {
        "orbit_id" : "2",
        "orbit_determination_date" : "2017-08-20 06:18:11",
        "orbit_uncertainty" : "7",
        "minimum_orbit_intersection" : ".0071428",
        "jupiter_tisserand_invariant" : "5.874",
        "epoch_osculation" : "2458000.5",
        "eccentricity" : ".3179061258474021",
        "semi_major_axis" : "1.03436766129103",
        "inclination" : "4.008314775490596",
        "ascending_node_longitude" : "322.7144944711469",
        "orbital_period" : "384.2473032363464",
        "perihelion_distance" : ".7055358453881611",
        "perihelion_argument" : "249.0178764867158",
        "aphelion_distance" : "1.363199477193899",
        "perihelion_time" : "2457901.623542154874",
        "mean_anomaly" : "92.63701924370051",
        "mean_motion" : ".9368966209206363",
        "equinox" : "J2000"
      }
    } ]
  }
}